[{"OBJECT_NAME":"STARLINK-32244","OBJECT_ID":"2024-141P","EPOCH":"2026-03-09T17:29:12.164064","MEAN_MOTION":15.30184555,"ECCENTRICITY":0.00012754,"INCLINATION":53.1603,"RA_OF_ASC_NODE":242.6167,"ARG_OF_PERICENTER":83.1651,"MEAN_ANOMALY":276.9495,"EPHEMERIS_TYPE":0,"CLASSIFICATION_TYPE":"U","NORAD_CAT_ID":60411,"ELEMENT_SET_NO":999,"REV_AT_EPOCH":8958,"BSTAR":1.7725412e-5,"MEAN_MOTION_DOT":1.66e-6,"MEAN_MOTION_DDOT":0},{"OBJECT_NAME":"HAWK-11C","OBJECT_ID":"2024-247E","EPOCH":"2026-03-09T12:17:35.407968","MEAN_MOTION":15.2884802,"ECCENTRICITY":0.00059001,"INCLINATION":45.0045,"RA_OF_ASC_NODE":114.8762,"ARG_OF_PERICENTER":329.704,"MEAN_ANOMALY":30.3502,"EPHEMERIS_TYPE":0,"CLASSIFICATION_TYPE":"U","NORAD_CAT_ID":62381,"ELEMENT_SET_NO":999,"REV_AT_EPOCH":6774,"BSTAR":0.00033290115,"MEAN_MOTION_DOT":9.223e-5,"MEAN_MOTION_DDOT":0}]
