STARLINK-32244          
1 60411U 24141P   26068.72861301  .00000166  00000+0  17725-4 0  9992
2 60411  53.1603 242.6167 0001275  83.1651 276.9495 15.30184555 89588
HAWK-11C                
1 62381U 24247E   26068.51221537  .00009223  00000+0  33290-3 0  9992
2 62381  45.0045 114.8762 0005900 329.7040  30.3502 15.28848020 67743
